{"type": "FeatureCollection", "features": [{"type": "Feature", "geometry": {"type": "Point", "coordinates": [-118.2141, 34.1139]}, "properties": {"cd": "1", "name": "CD 1 \u2013 Glassell Park"}}, {"type": "Feature", "geometry": {"type": "Point", "coordinates": [-118.3967, 34.1394]}, "properties": {"cd": "2", "name": "CD 2 \u2013 Studio City"}}, {"type": "Feature", "geometry": {"type": "Point", "coordinates": [-118.6072, 34.1684]}, "properties": {"cd": "3", "name": "CD 3 \u2013 Woodland Hills"}}, {"type": "Feature", "geometry": {"type": "Point", "coordinates": [-118.3298, 34.0966]}, "properties": {"cd": "4", "name": "CD 4 \u2013 Hollywood"}}, {"type": "Feature", "geometry": {"type": "Point", "coordinates": [-118.4426, 34.056]}, "properties": {"cd": "5", "name": "CD 5 \u2013 West LA"}}, {"type": "Feature", "geometry": {"type": "Point", "coordinates": [-118.4488, 34.1844]}, "properties": {"cd": "6", "name": "CD 6 \u2013 Van Nuys"}}, {"type": "Feature", "geometry": {"type": "Point", "coordinates": [-118.41, 34.26]}, "properties": {"cd": "7", "name": "CD 7 \u2013 Pacoima"}}, {"type": "Feature", "geometry": {"type": "Point", "coordinates": [-118.3313, 33.9942]}, "properties": {"cd": "8", "name": "CD 8 \u2013 Crenshaw"}}, {"type": "Feature", "geometry": {"type": "Point", "coordinates": [-118.2479, 34.0023]}, "properties": {"cd": "9", "name": "CD 9 \u2013 South LA"}}, {"type": "Feature", "geometry": {"type": "Point", "coordinates": [-118.3432, 34.0377]}, "properties": {"cd": "10", "name": "CD 10 \u2013 West Adams"}}, {"type": "Feature", "geometry": {"type": "Point", "coordinates": [-118.4655, 33.9997]}, "properties": {"cd": "11", "name": "CD 11 \u2013 Venice"}}, {"type": "Feature", "geometry": {"type": "Point", "coordinates": [-118.5561, 34.2275]}, "properties": {"cd": "12", "name": "CD 12 \u2013 Northridge"}}, {"type": "Feature", "geometry": {"type": "Point", "coordinates": [-118.3318, 34.1016]}, "properties": {"cd": "13", "name": "CD 13 \u2013 Hollywood Hills"}}, {"type": "Feature", "geometry": {"type": "Point", "coordinates": [-118.2067, 34.1366]}, "properties": {"cd": "14", "name": "CD 14 \u2013 Eagle Rock"}}, {"type": "Feature", "geometry": {"type": "Point", "coordinates": [-118.2922, 33.7454]}, "properties": {"cd": "15", "name": "CD 15 \u2013 San Pedro"}}]}